// Satellite orbit path data
export function tle() {
    // TLE for ISS (International Space Station) accessed from on October 17th 2021.
    // See https://www.n2yo.com/satellite/?s=25544
    return ['1 25544U 98067A   21290.56136700  .00007140  00000-0  13893-3 0  9991',
        '2 25544  51.6431  97.6357 0004313 121.7524 274.6695 15.48727743307560'];
}
